{
  "type": "FeatureCollection",
  "features": [
    {
      "type": "Feature",
      "properties": {
        "norad_id": 37967,
        "name": "COSMOS 2251 DEB",
        "group": "cosmos-2251-debris",
        "lat": 23.947198866281987,
        "lon": 122.37452871660676,
        "alt_km": 829.1843907139837,
        "timestamp": "2025-12-24T18:55:56.469802+00:00",
        "meta_object_name": "COSMOS 2251 DEB",
        "meta_object_id": "1993-036BPS",
        "meta_epoch": "2025-12-23T17:48:57.484800",
        "meta_mean_motion": 14.40634193,
        "meta_eccentricity": 0.01510703,
        "meta_inclination": 74.0162,
        "meta_ra_of_asc_node": 116.9992,
        "meta_arg_of_pericenter": 253.4566,
        "meta_mean_anomaly": 104.995,
        "meta_ephemeris_type": 0,
        "meta_classification_type": "U",
        "meta_norad_cat_id": 37967,
        "meta_element_set_no": 999,
        "meta_rev_at_epoch": 64894,
        "meta_bstar": 0.0018561485,
        "meta_mean_motion_dot": 6.756e-05,
        "meta_mean_motion_ddot": 0,
        "tle_line1": "1 37967U 93036BPS 25357.74233200  .00006756  00000+0  18561-2 0  9992",
        "tle_line2": "2 37967  74.0162 116.9992 0151070 253.4566 104.9950 14.40634193648940"
      },
      "geometry": {
        "type": "Point",
        "coordinates": [
          122.37452871660676,
          23.947198866281987
        ]
      }
    },
    {
      "type": "Feature",
      "properties": {
        "norad_id": 37968,
        "name": "COSMOS 2251 DEB",
        "group": "cosmos-2251-debris",
        "lat": -72.25766592164253,
        "lon": 130.32681055278908,
        "alt_km": 577.465660130033,
        "timestamp": "2025-12-24T18:55:56.469812+00:00",
        "meta_object_name": "COSMOS 2251 DEB",
        "meta_object_id": "1993-036BPT",
        "meta_epoch": "2025-12-21T00:10:33.901248",
        "meta_mean_motion": 15.00806785,
        "meta_eccentricity": 0.00805513,
        "meta_inclination": 74.0006,
        "meta_ra_of_asc_node": 254.2977,
        "meta_arg_of_pericenter": 7.8808,
        "meta_mean_anomaly": 352.3622,
        "meta_ephemeris_type": 0,
        "meta_classification_type": "U",
        "meta_norad_cat_id": 37968,
        "meta_element_set_no": 999,
        "meta_rev_at_epoch": 60343,
        "meta_bstar": 0.00064941669,
        "meta_mean_motion_dot": 8.807e-05,
        "meta_mean_motion_ddot": 0,
        "tle_line1": "1 37968U 93036BPT 25355.00733682  .00008807  00000+0  64942-3 0  9993",
        "tle_line2": "2 37968  74.0006 254.2977 0080551   7.8808 352.3622 15.00806785603437"
      },
      "geometry": {
        "type": "Point",
        "coordinates": [
          130.32681055278908,
          -72.25766592164253
        ]
      }
    },
    {
      "type": "Feature",
      "properties": {
        "norad_id": 37971,
        "name": "COSMOS 2251 DEB",
        "group": "cosmos-2251-debris",
        "lat": 73.32472912152454,
        "lon": 92.51243468484101,
        "alt_km": 706.190868357311,
        "timestamp": "2025-12-24T18:55:56.469823+00:00",
        "meta_object_name": "COSMOS 2251 DEB",
        "meta_object_id": "1993-036BPW",
        "meta_epoch": "2025-12-21T19:16:34.897152",
        "meta_mean_motion": 14.48757325,
        "meta_eccentricity": 0.00659406,
        "meta_inclination": 73.9924,
        "meta_ra_of_asc_node": 24.7096,
        "meta_arg_of_pericenter": 161.9609,
        "meta_mean_anomaly": 198.3914,
        "meta_ephemeris_type": 0,
        "meta_classification_type": "U",
        "meta_norad_cat_id": 37971,
        "meta_element_set_no": 999,
        "meta_rev_at_epoch": 60809,
        "meta_bstar": 0.0013046337,
        "meta_mean_motion_dot": 5.035e-05,
        "meta_mean_motion_ddot": 0,
        "tle_line1": "1 37971U 93036BPW 25355.80318168  .00005035  00000+0  13046-2 0  9991",
        "tle_line2": "2 37971  73.9924  24.7096 0065940 161.9609 198.3914 14.48757325608091"
      },
      "geometry": {
        "type": "Point",
        "coordinates": [
          92.51243468484101,
          73.32472912152454
        ]
      }
    },
    {
      "type": "Feature",
      "properties": {
        "norad_id": 37975,
        "name": "COSMOS 2251 DEB",
        "group": "cosmos-2251-debris",
        "lat": 73.92594727845292,
        "lon": 35.77412661795989,
        "alt_km": 696.3315483237066,
        "timestamp": "2025-12-24T18:55:56.469835+00:00",
        "meta_object_name": "COSMOS 2251 DEB",
        "meta_object_id": "1993-036BQA",
        "meta_epoch": "2025-12-22T03:06:01.103616",
        "meta_mean_motion": 14.76502233,
        "meta_eccentricity": 0.00947052,
        "meta_inclination": 74.0027,
        "meta_ra_of_asc_node": 305.6384,
        "meta_arg_of_pericenter": 293.0752,
        "meta_mean_anomaly": 66.0459,
        "meta_ephemeris_type": 0,
        "meta_classification_type": "U",
        "meta_norad_cat_id": 37975,
        "meta_element_set_no": 999,
        "meta_rev_at_epoch": 69884,
        "meta_bstar": 0.0037841877,
        "meta_mean_motion_dot": 0.00028465,
        "meta_mean_motion_ddot": 0,
        "tle_line1": "1 37975U 93036BQA 25356.12917944  .00028465  00000+0  37842-2 0  9990",
        "tle_line2": "2 37975  74.0027 305.6384 0094705 293.0752  66.0459 14.76502233698843"
      },
      "geometry": {
        "type": "Point",
        "coordinates": [
          35.77412661795989,
          73.92594727845292
        ]
      }
    },
    {
      "type": "Feature",
      "properties": {
        "norad_id": 37985,
        "name": "COSMOS 2251 DEB",
        "group": "cosmos-2251-debris",
        "lat": -6.783658787650252,
        "lon": 65.57646603202564,
        "alt_km": 792.0215133303864,
        "timestamp": "2025-12-24T18:55:56.469845+00:00",
        "meta_object_name": "COSMOS 2251 DEB",
        "meta_object_id": "1993-036BQL",
        "meta_epoch": "2025-12-21T23:09:40.593024",
        "meta_mean_motion": 14.35485723,
        "meta_eccentricity": 0.00211869,
        "meta_inclination": 74.025,
        "meta_ra_of_asc_node": 248.8047,
        "meta_arg_of_pericenter": 9.0301,
        "meta_mean_anomaly": 351.1228,
        "meta_ephemeris_type": 0,
        "meta_classification_type": "U",
        "meta_norad_cat_id": 37985,
        "meta_element_set_no": 999,
        "meta_rev_at_epoch": 65049,
        "meta_bstar": 5.1256722e-05,
        "meta_mean_motion_dot": 1.21e-06,
        "meta_mean_motion_ddot": 0,
        "tle_line1": "1 37985U 93036BQL 25355.96505316  .00000121  00000+0  51257-4 0  9995",
        "tle_line2": "2 37985  74.0250 248.8047 0021186   9.0301 351.1228 14.35485723650494"
      },
      "geometry": {
        "type": "Point",
        "coordinates": [
          65.57646603202564,
          -6.783658787650252
        ]
      }
    },
    {
      "type": "Feature",
      "properties": {
        "norad_id": 37988,
        "name": "COSMOS 2251 DEB",
        "group": "cosmos-2251-debris",
        "lat": -16.730349333180005,
        "lon": -174.33009728465603,
        "alt_km": 711.5560912153433,
        "timestamp": "2025-12-24T18:55:56.469855+00:00",
        "meta_object_name": "COSMOS 2251 DEB",
        "meta_object_id": "1993-036BQP",
        "meta_epoch": "2025-12-19T02:22:34.688640",
        "meta_mean_motion": 14.6891967,
        "meta_eccentricity": 0.00635463,
        "meta_inclination": 74.062,
        "meta_ra_of_asc_node": 11.7337,
        "meta_arg_of_pericenter": 47.3595,
        "meta_mean_anomaly": 313.2907,
        "meta_ephemeris_type": 0,
        "meta_classification_type": "U",
        "meta_norad_cat_id": 37988,
        "meta_element_set_no": 999,
        "meta_rev_at_epoch": 23489,
        "meta_bstar": 0.00064166354,
        "meta_mean_motion_dot": 3.842e-05,
        "meta_mean_motion_ddot": 0,
        "tle_line1": "1 37988U 93036BQP 25353.09901260  .00003842  00000+0  64166-3 0  9993",
        "tle_line2": "2 37988  74.0620  11.7337 0063546  47.3595 313.2907 14.68919670234897"
      },
      "geometry": {
        "type": "Point",
        "coordinates": [
          -174.33009728465603,
          -16.730349333180005
        ]
      }
    },
    {
      "type": "Feature",
      "properties": {
        "norad_id": 37993,
        "name": "COSMOS 2251 DEB",
        "group": "cosmos-2251-debris",
        "lat": -49.509633586392724,
        "lon": 124.2987522243445,
        "alt_km": 696.1737951769974,
        "timestamp": "2025-12-24T18:55:56.469865+00:00",
        "meta_object_name": "COSMOS 2251 DEB",
        "meta_object_id": "1993-036BQU",
        "meta_epoch": "2025-12-17T04:37:52.855104",
        "meta_mean_motion": 14.59966404,
        "meta_eccentricity": 0.00218755,
        "meta_inclination": 74.021,
        "meta_ra_of_asc_node": 158.4097,
        "meta_arg_of_pericenter": 246.7183,
        "meta_mean_anomaly": 113.168,
        "meta_ephemeris_type": 0,
        "meta_classification_type": "U",
        "meta_norad_cat_id": 37993,
        "meta_element_set_no": 999,
        "meta_rev_at_epoch": 65382,
        "meta_bstar": 0.0010496489,
        "meta_mean_motion_dot": 5.024e-05,
        "meta_mean_motion_ddot": 0,
        "tle_line1": "1 37993U 93036BQU 25351.19297286  .00005024  00000+0  10496-2 0  9994",
        "tle_line2": "2 37993  74.0210 158.4097 0021875 246.7183 113.1680 14.59966404653827"
      },
      "geometry": {
        "type": "Point",
        "coordinates": [
          124.2987522243445,
          -49.509633586392724
        ]
      }
    }
  ]
}